{
"type": "FeatureCollection",
"name": "Stasiun_PT",
"crs": { "type": "name", "properties": { "name": "urn:ogc:def:crs:OGC:1.3:CRS84" } },
"features": [
{ "type": "Feature", "properties": { "id": "node/316743611", "@id": "node/316743611", "addr:city": "RT.1/RW.20, Kranji, Bekasi Barat", "addr:full": null, "addr:housenumber": "7", "addr:postcode": "17135", "addr:street": "Jalan Sultan Agung", "alt_name": "Stasiun Kranji", "ele": "18", "light_rail": null, "name": "Kranji", "name:en": "Kranji", "name:id": "Kranji", "network": "KAI Commuter", "network:wikidata": "Q12501611", "operator": "PT Kereta Api Indonesia", "operator:website": "https://www.kai.id", "operator:wikidata": "Q2745027", "public_transport": "station", "railway": "station", "railway:ref": "KRI", "source": null, "station": null, "train": "yes", "wheelchair": "yes", "wikidata": "Q2465391", "wikipedia": "id:Stasiun Kranji" }, "geometry": { "type": "Point", "coordinates": [ 106.9798267, -6.2245133 ] } },
{ "type": "Feature", "properties": { "id": "node/3469731328", "@id": "node/3469731328", "addr:city": null, "addr:full": null, "addr:housenumber": null, "addr:postcode": null, "addr:street": null, "alt_name": "Stasiun Bekasi;Stasiun Bekasi Kota;Bekasi Kota", "ele": "19", "light_rail": null, "name": "Bekasi", "name:en": "Bekasi", "name:id": "Bekasi", "network": "KAI", "network:wikidata": "Q2745027", "operator": "PT Kereta Api Indonesia", "operator:website": "https://www.kai.id", "operator:wikidata": "Q2745027", "public_transport": "station", "railway": "station", "railway:ref": "BKS", "source": null, "station": null, "train": "yes", "wheelchair": null, "wikidata": "Q1811845", "wikipedia": "id:Stasiun Bekasi" }, "geometry": { "type": "Point", "coordinates": [ 106.9987436, -6.2362143 ] } },
{ "type": "Feature", "properties": { "id": "node/3865048788", "@id": "node/3865048788", "addr:city": "DKI Jakarta", "addr:full": "Jalan Stasiun Cakung", "addr:housenumber": null, "addr:postcode": "13950", "addr:street": "Jalan Raya Stasiun Cakung Pulogebang, Cakung", "alt_name": "Stasiun Cakung", "ele": "18", "light_rail": null, "name": "Cakung", "name:en": "Cakung", "name:id": "Cakung", "network": "KAI Commuter", "network:wikidata": "Q12501611", "operator": "PT Kereta Api Indonesia", "operator:website": "https://www.kai.id", "operator:wikidata": "Q2745027", "public_transport": "station", "railway": "station", "railway:ref": "CUK", "source": "HOT_InAWARESurvey_2017", "station": null, "train": "yes", "wheelchair": null, "wikidata": "Q2793350", "wikipedia": "id:Stasiun Cakung" }, "geometry": { "type": "Point", "coordinates": [ 106.9524791, -6.219081 ] } },
{ "type": "Feature", "properties": { "id": "node/5155429394", "@id": "node/5155429394", "addr:city": null, "addr:full": null, "addr:housenumber": null, "addr:postcode": null, "addr:street": null, "alt_name": "Stasiun Bekasi Timur;Stasiun Ampera;Stasiun Bulak Kapal;Ampera;Bulak Kapal", "ele": "19", "light_rail": null, "name": "Bekasi Timur", "name:en": "Bekasi Timur", "name:id": "Bekasi Timur", "network": "KAI Commuter", "network:wikidata": "Q12501611", "operator": "PT Kereta Api Indonesia", "operator:website": "https://www.kai.id", "operator:wikidata": "Q2745027", "public_transport": "station", "railway": "station", "railway:ref": "BKST", "source": null, "station": null, "train": "yes", "wheelchair": null, "wikidata": "Q25464696", "wikipedia": "en:Bekasi Timur railway station" }, "geometry": { "type": "Point", "coordinates": [ 107.0182065, -6.246862 ] } },
{ "type": "Feature", "properties": { "id": "node/8174072563", "@id": "node/8174072563", "addr:city": "Jakarta", "addr:full": null, "addr:housenumber": null, "addr:postcode": null, "addr:street": null, "alt_name": null, "ele": null, "light_rail": "yes", "name": "Bekasi Barat", "name:en": null, "name:id": null, "network": "LRT Jabodebek", "network:wikidata": null, "operator": "PT Kereta Api Indonesia (Persero), Divisi LRT Jabodebek", "operator:website": null, "operator:wikidata": null, "public_transport": "station", "railway": "station", "railway:ref": null, "source": null, "station": "light_rail", "train": null, "wheelchair": null, "wikidata": "Q33022844", "wikipedia": "id:Stasiun LRT Bekasi Barat" }, "geometry": { "type": "Point", "coordinates": [ 106.9904237, -6.2529489 ] } },
{ "type": "Feature", "properties": { "id": "node/8174072564", "@id": "node/8174072564", "addr:city": "Jakarta", "addr:full": null, "addr:housenumber": null, "addr:postcode": null, "addr:street": "Jalan Batu Mulia", "alt_name": null, "ele": null, "light_rail": "yes", "name": "Cikunir 2", "name:en": null, "name:id": null, "network": "LRT Jabodebek", "network:wikidata": null, "operator": "PT Kereta Api Indonesia (Persero), Divisi LRT Jabodebek", "operator:website": null, "operator:wikidata": null, "public_transport": "station", "railway": "station", "railway:ref": null, "source": null, "station": "light_rail", "train": null, "wheelchair": null, "wikidata": "Q33022543", "wikipedia": "id:Stasiun LRT Cikunir 2" }, "geometry": { "type": "Point", "coordinates": [ 106.9632233, -6.2546849 ] } },
{ "type": "Feature", "properties": { "id": "node/8174072565", "@id": "node/8174072565", "addr:city": "Kota Bekasi", "addr:full": null, "addr:housenumber": null, "addr:postcode": null, "addr:street": "Jalan Caman Raya", "alt_name": null, "ele": null, "light_rail": "yes", "name": "Cikunir 1", "name:en": null, "name:id": null, "network": "LRT Jabodebek", "network:wikidata": null, "operator": "PT Kereta Api Indonesia (Persero), Divisi LRT Jabodebek", "operator:website": null, "operator:wikidata": null, "public_transport": "station", "railway": "station", "railway:ref": null, "source": null, "station": "light_rail", "train": null, "wheelchair": null, "wikidata": "Q33022012", "wikipedia": "id:Stasiun LRT Cikunir 1" }, "geometry": { "type": "Point", "coordinates": [ 106.9518734, -6.2566001 ] } },
{ "type": "Feature", "properties": { "id": "node/8174072566", "@id": "node/8174072566", "addr:city": "Jakarta", "addr:full": null, "addr:housenumber": null, "addr:postcode": null, "addr:street": null, "alt_name": null, "ele": null, "light_rail": "yes", "name": "Jatibening Baru", "name:en": null, "name:id": null, "network": "LRT Jabodebek", "network:wikidata": null, "operator": "PT Kereta Api Indonesia (Persero), Divisi LRT Jabodebek", "operator:website": null, "operator:wikidata": null, "public_transport": "station", "railway": "station", "railway:ref": null, "source": null, "station": "light_rail", "train": null, "wheelchair": null, "wikidata": "Q33020703", "wikipedia": "id:Stasiun LRT Jati Bening Baru" }, "geometry": { "type": "Point", "coordinates": [ 106.9279199, -6.2577476 ] } }
]
}
